442P/McNaught,e,6.0579,32.0031,310.7471,4.963738,0.0891232,0.53275507,52.4573,03/29.0/2024,2000,g 13.5,4.0
# From MPEC 2023-SQ0
443P/PANSTARRS-Christensen,e,19.8881,108.9421,145.1114,4.125592,0.1176182,0.28335712,63.0365,03/29.0/2024,2000,g 13.5,4.0
# From MPEC 2023-VM5
444P/WISE-PANSTARRS,e,22.2908,88.8541,171.7017,3.440834,0.1544218,0.57030341,96.8440,03/29.0/2024,2000,g 17.0,4.0
# From MPEC 2024-BE0
445P/Lemmon-PANSTARRS,e,1.0885,126.5921,213.3879,4.051318,0.1208675,0.41398880,71.3287,03/29.0/2024,2000,g 15.0,4.0
# From MPEC 2022-WQ9
446P/McNaught,e,16.6153,336.3794,344.6770,4.565310,0.1010412,0.64677032,67.6622,03/29.0/2024,2000,g 16.5,4.0
# From MPEC 2022-YB4
447P/Sheppard-Tholen,e,7.4378,302.6392,97.7195,5.632709,0.0737273,0.17837130,43.3570,03/29.0/2024,2000,g 12.0,4.0
# From MPEC 2023-A50
448P/PANSTARRS,e,12.1502,161.7570,218.7564,3.634867,0.1422235,0.41866696,80.9936,03/29.0/2024,2000,g 16.0,4.0
# From MPEC 2024-DC6
449P/Leonard,e,15.4712,242.5241,176.7261,3.600112,0.1442880,0.47983799,176.0960,03/29.0/2024,2000,g 16.0,4.0
# From MPEC 2024-D33
450P/LONEOS,e,10.5600,124.7657,21.4521,7.971734,0.0437900,0.31222301,315.1215,03/29.0/2024,2000,g  6.5,4.0
# From MPEC 2023-HD1
451P/Christensen,e,26.4796,300.8933,186.7265,6.344358,0.0616769,0.55890451,30.0590,03/29.0/2024,2000,g 15.5,4.0
# From MPEC 2023-J29
452P/Sheppard-Jewitt,e,6.4215,123.6848,37.0462,7.302864,0.0499418,0.42789754,16.9019,03/29.0/2024,2000,g  9.0,4.0
# From MPEC 2023-RF3
453P/WISE-Lemmon,e,27.0677,42.8961,70.8523,5.462721,0.0771952,0.58288014,30.2512,03/29.0/2024,2000,g 14.0,4.0
# From MPEC 2023-CD7
454P/PANSTARRS,e,19.8127,54.5823,20.0926,4.208568,0.1141570,0.36158088,69.8228,03/29.0/2024,2000,g 14.0,4.0
# From MPEC 2022-Y14
455P/PANSTARRS,e,14.1378,146.1842,237.5058,3.152626,0.1760741,0.30483875,70.0441,03/29.0/2024,2000,g 17.0,4.0
# From MPEC 2023-N01
456P/PANSTARRS,e,16.9676,243.1611,233.5868,3.172002,0.1744632,0.11760921,292.9430,03/29.0/2024,2000,g 13.5,4.0
# From MPEC 2023-F99
457P/Lemmon-PANSTARRS,e,5.2251,175.9722,104.3962,2.646091,0.2289797,0.11869347,326.9412,03/29.0/2024,2000,g 15.5,4.0
# From MPEC 2023-HD1
458P/Jahn,e,13.6263,1.5856,104.8384,3.857739,0.1300783,0.31712259,67.0752,03/29.0/2024,2000,g 17.3,4.0
# From MPEC 2023-UR6
459P/Catalina,e,7.1729,256.9895,205.2017,3.239780,0.1690171,0.57771280,67.8718,03/29.0/2024,2000,g 15.5,4.0
# From MPEC 2023-G14
460P/PANSTARRS,e,18.8956,180.5151,351.9515,3.027106,0.1871383,0.66401291,190.2641,03/29.0/2024,2000,g 21.0,4.0
# From MPEC 2024-F34
461P/WISE,e,18.4094,194.3786,174.8287,3.143355,0.1768536,0.57007860,160.2515,03/29.0/2024,2000,g 18.5,4.0
# From MPEC 2024-BE0
462P/LONEOS-PANSTARRS,e,7.0280,322.7733,4.3650,4.876492,0.0915257,0.57821047,55.3851,03/29.0/2024,2000,g 17.0,4.0
# From MPEC 2023-XP6
463P/NEOWISE,e,29.2861,283.2102,216.3552,2.974447,0.1921298,0.82562192,70.1969,03/29.0/2024,2000,g 18.0,4.0
# From MPEC 2023-RF3
464P/PANSTARRS,e,21.6670,309.5797,267.6433,4.686580,0.0971449,0.28049527,38.3916,03/29.0/2024,2000,g 10.5,4.0
# From MPEC 2024-AF0
465P/Hill,e,25.8696,218.0071,141.1290,6.029757,0.0665663,0.61392253,21.5935,03/29.0/2024,2000,g 12.5,4.0
# From MPEC 2023-VM5
466P/PANSTARRS,e,12.2374,119.7875,196.8554,4.049021,0.1209704,0.46780479,39.9235,03/29.0/2024,2000,g 14.0,4.0
# From MPEC 2023-T65
467P/LINEAR-Grauer,e,2.4789,43.2692,267.8493,5.831020,0.0699983,0.05528653,33.8264,03/29.0/2024,2000,g  9.0,4.0
# From MPEC 2023-XP6
468P/SidingSpring,e,50.4463,356.1239,322.5687,7.123310,0.0518419,0.44549399,6.6801,03/29.0/2024,2000,g 11.5,4.0
# From MPEC 2023-P35
469P/PANSTARRS,e,20.1741,178.9653,43.5253,4.340161,0.1090047,0.30756691,292.4545,03/29.0/2024,2000,g 13.5,4.0
# From MPEC 2024-D33
470P/PANSTARRS,e,8.8427,246.1739,151.9659,4.476331,0.1040688,0.39046260,10.6264,03/29.0/2024,2000,g 15.5,4.0
# From MPEC 2024-EF7
471P/,e,4.7914,283.3218,94.9687,5.711744,0.0722023,0.62828267,7.2011,03/29.0/2024,2000,g 12.0,4.0
# From MPEC 2024-D33
472P/NEAT-LINEAR,e,10.8487,206.0357,219.0568,7.824254,0.0450339,0.56685354,355.0787,03/29.0/2024,2000,g 10.5,4.0
# From MPEC 2024-F34
473P/NEAT,e,56.9081,22.1845,42.9169,7.969995,0.0438043,0.82361514,1.3912,03/29.0/2024,2000,g 13.5,4.0
# From MPEC 2024-B74
474P/Hogan,e,1.0970,26.7549,11.3058,3.131151,0.1778886,0.18843349,45.7090,03/29.0/2024,2000,g 15.5,4.0
# From MPEC 2024-F34
475P/Spacewatch-LINEAR,e,14.5260,147.3776,40.3973,7.307820,0.0498910,0.44203999,356.7747,03/29.0/2024,2000,g 11.0,4.0
# From MPEC 2024-C04
476P/PANSTARRS,e,19.0090,57.0608,46.7501,4.792534,0.0939412,0.34824995,341.0564,03/29.0/2024,2000,g 12.5,4.0
# From MPEC 2024-D33
477P/PANSTARRS,e,8.9151,59.1590,306.0109,3.004870,0.1892194,0.41738757,17.6457,03/29.0/2024,2000,g 14.5,4.0
# From MPEC 2024-F34
478P/ATLAS,e,12.5252,127.2716,13.1776,3.645720,0.1415889,0.34344709,355.1912,03/29.0/2024,2000,g 13.5,4.0
# From MPEC 2024-F34
479P/Elenin,e,15.3979,295.8340,263.5250,5.622623,0.0739257,0.77880358,357.2467,03/29.0/2024,2000,g 15.0,4.0
# From MPEC 2024-EF7
480P/PANSTARRS,e,13.7175,229.9771,214.2545,4.607631,0.0996523,0.24635487,33.9880,03/29.0/2024,2000,g 12.0,4.0
# From MPEC 2024-DC6
481P/Lemmon-PANSTARRS,e,6.0826,93.5514,356.6912,4.678105,0.0974090,0.34343370,25.7054,03/29.0/2024,2000,g 13.5,4.0
# From MPEC 2024-F34
482P/PANSTARRS,e,24.4846,126.1000,339.6565,3.754882,0.1354595,0.49226830,40.7731,03/29.0/2024,2000,g 13.5,4.0
# From MPEC 2024-DD3
483P/PANSTARRS,e,24.4846,126.1000,339.6565,3.754882,0.1354596,0.49226832,40.7731,03/29.0/2024,2000,g 13.5,4.0
# From MPC107687
1I/`Oumuamua,h,09/09.4886/2017,122.6778,24.5997,241.6845,1.199252,0.255240,2000,23.0,2.0
# From MPEC 2023-L37
2I/Borisov,h,12/08.5548/2019,44.0527,308.1480,209.1251,3.356633,2.006548,2000,11.0,4.0
